TRANSIT 5B-5 (OPS 6582) 
1 00965U 64083D   19107.80869309  .00000032  00000-0  32034-4 0  9993
2 00965  90.0197 192.7446 0040788  12.8946 105.4187 13.56727957688794
OSCAR 7 (AO-7)          
1 07530U 74089B   19107.85188025 -.00000040  00000-0  29104-4 0  9993
2 07530 101.7379  76.1628 0012509 105.6518 283.6627 12.53637723 32534
UOSAT 2 (UO-11)         
1 14781U 84021B   19107.96644389  .00000068  00000-0  14489-4 0  9997
2 14781  97.6169 135.5847 0009180 153.5918 206.5766 14.83077130868619
NOAA 9                  
1 15427U 84123A   19107.90170781  .00000000  00000-0  22805-4 0  9999
2 15427  98.8866  56.9656 0014239 207.6102 221.2903 14.16064939772929
LUSAT (LO-19)           
1 20442U 90005G   19107.87201972 -.00000006  00000-0  14250-4 0  9993
2 20442  98.6437  49.9932 0011336 337.2451  22.8229 14.32922289527467
ITAMSAT (IO-26)         
1 22826U 93061D   19107.94520592 -.00000003  00000-0  16515-4 0  9999
2 22826  98.8943  95.1836 0009212 161.1598 198.9926 14.30389201333071
RADIO ROSTO (RS-15)     
1 23439U 94085A   19107.87621791 -.00000051  00000-0 -25735-3 0  9999
2 23439  64.8164 216.0872 0147526 125.1756 236.3087 11.27567906   924
JAS-2 (FO-29)           
1 24278U 96046B   19107.95521067  .00000002  00000-0  36383-4 0  9990
2 24278  98.5282 269.7673 0350965  40.2768 322.3815 13.53090423119201
NOAA 15                 
1 25338U 98030A   19107.94710033  .00000033  00000-0  32364-4 0  9994
2 25338  98.7521 129.3084 0011458  65.8454 294.3922 14.25902567 88191
TECHSAT 1B (GO-32)      
1 25397U 98043D   19107.91278896 -.00000022  00000-0  95337-5 0  9995
2 25397  98.6842  48.8223 0001027 158.9974 201.1247 14.23663591 78861
ISS (ZARYA)             
1 25544U 98067A   19107.92643309  .00001649  00000-0  33850-4 0  9997
2 25544  51.6431 300.7557 0001426 186.1547 315.1299 15.52563769165892
ORSTED                  
1 25635U 99008B   19107.90882066  .00000062  00000-0  22821-4 0  9991
2 25635  96.4754 226.5477 0137013 271.1576  87.3928 14.48141343 62889
PCSAT (NO-44)           
1 26931U 01043C   19107.55650573 -.00000022  00000-0  23511-4 0  9994
2 26931  67.0504 164.0195 0005904 278.1255  81.9177 14.30538503916088
SAUDISAT 1C (SO-50)     
1 27607U 02058C   19107.80354080 -.00000017  00000-0  18466-4 0  9991
2 27607  64.5547 238.8082 0082389 268.3096  90.8568 14.75536374877777
CUTE-1 (CO-55)          
1 27844U 03031E   19107.95204031  .00000056  00000-0  44911-4 0  9998
2 27844  98.6861 117.0833 0009327 203.3183 156.7572 14.22170624819470
CUBESAT XI-IV (CO-57)   
1 27848U 03031J   19107.92661833  .00000040  00000-0  38249-4 0  9996
2 27848  98.6939 117.5444 0008997 215.3614 144.6968 14.21766745819331
MOZHAYETS 4 (RS-22)     
1 27939U 03042A   19107.90188263  .00000076  00000-0  22238-4 0  9998
2 27939  98.0289 244.9598 0011415 261.6804  98.3097 14.66770139831482
INMARSAT 4-F1           
1 28628U 05009A   19107.89064625 -.00000281  00000-0  00000-0 0  9990
2 28628   2.9846  21.8256 0003728  18.8108 269.2031  1.00271287 51420
NOAA 18                 
1 28654U 05018A   19107.93501034  .00000067  00000-0  61320-4 0  9991
2 28654  99.1035 153.9564 0013958 355.7666   4.3385 14.12416628716700
CUBESAT XI 5            
1 28895U 05043F   19107.91344664  .00000119  00000-0  31633-4 0  9990
2 28895  97.9489 252.7964 0016852 182.0689 178.0447 14.63649621718213
METOP-A                 
1 29499U 06044A   19107.88855123 -.00000001  00000-0  18851-4 0  9994
2 29499  98.5814 162.8127 0001910  75.0755  12.2569 14.21546672648109
CARTOSAT-2 (IRS-P7)     
1 29710U 07001B   19107.76912297 -.00005282  00000-0 -71526-3 0  9991
2 29710  97.9797 167.3726 0001482  96.1753 263.9602 14.78619739662149
FALCONSAT 3             
1 30776U 07006E   19107.48824167  .00002288  00000-0  65345-4 0  9991
2 30776  35.4346 127.5906 0003668 266.6879  93.3428 15.35917091671113
CAPE1                   
1 31130U 07012P   19107.80239598  .00000098  00000-0  31540-4 0  9994
2 31130  98.1584  49.2442 0094743 280.2484  78.8041 14.56403879636702
CARTOSAT-2A             
1 32783U 08021A   19107.81522762  .00000262  00000-0  42952-4 0  9991
2 32783  97.9793 167.7888 0011575 313.6159  46.4039 14.78638658592098
CUTE-1.7+APD II (CO-65) 
1 32785U 08021C   19107.83159547  .00000204  00000-0  27598-4 0  9997
2 32785  97.5497 110.4659 0014633 106.3729 253.9098 14.88279954594415
COMPASS-1               
1 32787U 08021E   19107.96268398  .00000292  00000-0  32996-4 0  9993
2 32787  97.5108 122.6442 0013928  63.5698 296.6950 14.93308727595381
AAUSAT-II (CUBESAT-2)   
1 32788U 08021F   19107.79249725  .00000811  00000-0  79714-4 0  9994
2 32788  97.5011 126.2517 0013073  53.2521 306.9898 14.94662975595576
DELFI-C3 (DO-64)        
1 32789U 08021G   19107.92860788  .00000941  00000-0  67162-4 0  9996
2 32789  97.4712 159.4411 0011433 344.7374  15.3508 15.06806573597565
SEEDS II (CO-66)        
1 32791U 08021J   19107.68538890  .00000327  00000-0  38537-4 0  9990
2 32791  97.5297 116.2308 0015064  85.3738 274.9201 14.90777173594799
YUBILEINY (RS-30)       
1 32953U 08025A   19107.83282835  .00000020  00000-0  75656-4 0  9999
2 32953  82.5061 183.2302 0017924 263.4509  96.4529 12.43088895494625
FENGYUN 3A              
1 32958U 08026A   19107.84875864 -.00000066  00000-0 -12081-4 0  9991
2 32958  98.3807 111.4665 0009546 127.8304 232.3746 14.18599013564347
PRISM (HITOMI)          
1 33493U 09002B   19107.75158295  .00000034  00000-0  85687-5 0  9999
2 33493  98.1226  26.3592 0016077  32.0344 328.1850 14.96583244555880
STARS                   
1 33498U 09002G   19107.78521588  .00000193  00000-0  33813-4 0  9995
2 33498  98.3143 314.9286 0011260  13.7012 346.4501 14.78960654550850
KKS-1 (KISEKI)          
1 33499U 09002H   19107.89319658  .00000129  00000-0  26994-4 0  9992
2 33499  98.3542 304.6148 0010152  48.8249 311.3833 14.75424119549683
NOAA 19                 
1 33591U 09005A   19107.91408920  .00000049  00000-0  51663-4 0  9994
2 33591  99.1776  97.5521 0013786 187.6954 172.4007 14.12345101524921
SWISSCUBE               
1 35932U 09051B   19107.89664264  .00000138  00000-0  42177-4 0  9997
2 35932  98.5811 272.0826 0007499   4.7535 355.3732 14.56264344507746
BEESAT                  
1 35933U 09051C   19107.90345339  .00000110  00000-0  35845-4 0  9993
2 35933  98.5842 273.8172 0006035  20.3966 339.7470 14.56356072507814
ITUPSAT 1               
1 35935U 09051E   19107.92556232  .00000095  00000-0  33049-4 0  9999
2 35935  98.5954 274.0821 0008253  13.8530 346.2891 14.55518836507628
XIWANG-1 (HO-68)        
1 36122U 09072B   19107.71592384 -.00000041  00000-0  40681-5 0  9999
2 36122 100.0734 113.0077 0007662 121.4562 238.7302 13.16349066448721
CARTOSAT-2B             
1 36795U 10035A   19107.78440368  .00000042  00000-0  12829-4 0  9999
2 36795  97.9766 167.4161 0015443  28.6585 331.5450 14.78641437473137
TISAT 1                 
1 36799U 10035E   19107.60877238  .00000328  00000-0  39283-4 0  9994
2 36799  98.1466 257.7354 0010923 291.7163  68.2891 14.91054791475312
FENGYUN 3B (FENG-YUN-3B)
1 37214U 10059A   19107.81899493  .00000021  00000-0  33825-4 0  9999
2 37214  98.9939  79.2696 0018000  39.1108 321.1364 14.15912368437303
JUGNU                   
1 37839U 11058B   19107.93746056  .00000329  00000-0  33640-4 0  9997
2 37839  19.9622 349.2611 0018857   6.5328  99.8695 14.12647667388403
SRMSAT                  
1 37841U 11058D   19107.96046088  .00000307  00000-0  23752-4 0  9990
2 37841  19.9728  44.6159 0011767 237.8530 186.7636 14.10629058387876
M-CUBED & EXP-1 PRIME   
1 37855U 11061F   19107.58604868  .00000755  00000-0  46136-4 0  9991
2 37855 101.7236 331.2827 0173856 260.9031  97.2474 15.05271340406963
ALMASAT-1               
1 38078U 12006B   19107.94011164  .00061099  49450-5  37364-3 0  9997
2 38078  69.4256  82.6063 0175686 357.8797  25.2263 15.58958892387855
HORYU 2                 
1 38340U 12025D   19107.87314580  .00000169  00000-0  32749-4 0  9997
2 38340  98.3360 144.5862 0010590 326.6833  33.3707 14.75693199372048
METOP-B                 
1 38771U 12049A   19107.93276642 -.00000004  00000-0  18242-4 0  9995
2 38771  98.7097 168.1037 0002082 116.9611 295.9860 14.21485442341430
SARAL                   
1 39086U 13009A   19107.89116860 -.00000008  00000-0  13223-4 0  9990
2 39086  98.5421 295.0376 0002243  83.8252 276.3187 14.32035616320952
AAUSAT3                 
1 39087U 13009B   19107.80524392  .00000094  00000-0  47669-4 0  9990
2 39087  98.4934 315.1363 0013445 109.2776 250.9858 14.35711442321596
STRAND-1                
1 39090U 13009E   19107.87259839  .00000029  00000-0  25296-4 0  9992
2 39090  98.4949 314.8467 0010275 110.0497 250.1795 14.35078393321509
BRITE-AUSTRIA           
1 39091U 13009F   19107.93584903  .00000035  00000-0  27310-4 0  9999
2 39091  98.4927 314.1135 0011574 116.9514 243.2855 14.35105741321541
UNIBRITE (CANX-3A)      
1 39092U 13009G   19107.78474810  .00000033  00000-0  26833-4 0  9995
2 39092  98.4944 313.6208 0010511 111.5499 248.6807 14.34979505321495
SOMP                    
1 39134U 13015E   19107.71407541  .00001264  00000-0  67480-4 0  9999
2 39134  64.8635 221.2067 0025063 314.6014  45.3068 15.19995933330791
BEESAT-3                
1 39135U 13015F   19107.85624372  .00000986  00000-0  58985-4 0  9998
2 39135  64.8664 238.1907 0012167 317.3390  42.6790 15.17329741330475
BEESAT-2                
1 39136U 13015G   19107.87034069  .00001040  00000-0  62568-4 0  9993
2 39136  64.8684 241.7765 0013211 310.3848  49.6123 15.16771573330405
NEE-01 PEGASUS (NEE-01) 
1 39151U 13018B   19107.81841198  .00000137  00000-0  25018-4 0  9991
2 39151  97.9685 204.7028 0017994  46.1595 314.1100 14.80023088322571
CUBEBUG-1 (CAPITAN BETO)
1 39153U 13018D   19107.78927096  .00000173  00000-0  29449-4 0  9993
2 39153  97.9744 206.2777 0017820  43.1659 317.0946 14.80541177322667
